IDEFIX & ARIANE 42P R/B 
1 27422U 02021B   26043.81395883  .00000302  00000+0  13156-3 0  9995
2 27422  98.5844 342.7216 0010637 260.6930  99.3050 14.31008057240466
AQUA                    
1 27424U 02022A   26044.19433417  .00001127  00000+0  23502-3 0  9998
2 27424  98.4128  11.1220 0001358  50.0827  75.1492 14.61915292265156
CZ-4B R/B               
1 27432U 02024C   26044.17589693  .00000042  00000+0  44289-4 0  9996
2 27432  98.8896  97.6994 0051203  92.7622 335.7469 14.14543181225773
MIDORI II (ADEOS-II)    
1 27597U 02056A   26043.88183861  .00000349  00000+0  15496-3 0  9994
2 27597  98.7723   2.1952 0002182  77.0089 283.1336 14.29266366206752
H-2A R/B                
1 27601U 02056E   26043.85681271  .00000318  00000+0  12619-3 0  9995
2 27601  98.3155   5.1747 0069153 235.1011 153.9685 14.33743154210555
CZ-4B R/B               
1 28059U 03049C   26043.97078092  .00000521  00000+0  13121-3 0  9995
2 28059  98.6851  37.9112 0047278 308.1121  51.5816 14.54993294183008
CZ-2C R/B               
1 28222U 04012C   26044.15282184  .00047604  00000+0  54856-3 0  9991
2 28222  97.7303 107.1704 0015479  44.4307 315.8188 15.61682346200441
SL-16 R/B               
1 28353U 04021B   26044.06118392  .00000280  00000+0  17044-3 0  9992
2 28353  70.9991 284.1794 0003100  70.6385 289.5072 14.14592032119359
CZ-4B R/B               
1 28415U 04035C   26044.03752901  .00008731  00000+0  31112-3 0  9994
2 28415  97.3546  78.5800 0033854  58.1082 302.3444 15.28604047176147
CZ-2C R/B               
1 28480U 04046B   26043.80364928  .00000117  00000+0  59132-4 0  9993
2 28480  98.1994 320.3335 0138420 228.1739 130.7557 14.26983381104955
ARIANE 5 R/B            
1 28499U 04049H   26044.04281279  .00001006  00000+0  11688-3 0  9991
2 28499  98.2586 211.5845 0085407  71.2927 289.7533 14.85216221142130
CZ-2D R/B               
1 28738U 05024B   26043.99733064  .00036802  00000+0  49149-3 0  9993
2 28738  97.3618  58.2811 0007645 105.4815 254.7285 15.57955403135933
